start=new Date('2021-09-20T00:00:00.000Z').valueOf();
sats=[{"PERIOD":"95.593","EPOCH":"2021-09-19T16:38:06.733536","TIME_SYSTEM":"UTC","APOAPSIS":"547.855","REF_FRAME":"TEME","MEAN_MOTION_DOT":"-0.00000343","FILE":"3120378","LAUNCH_DATE":"2021-05-26","ARG_OF_PERICENTER":"58.4115","CENTER_NAME":"EARTH","ELEMENT_SET_NO":"999","MEAN_MOTION":"15.06391190","INCLINATION":"53.0499","MEAN_ELEMENT_THEORY":"SGP4","ECCENTRICITY":"0.00008870","RCS_SIZE":"LARGE","TLE_LINE2":"2 48649  53.0499 247.9536 0000887  58.4115 301.6961 15.06391190 17724","OBJECT_ID":"2021-044M","PERIAPSIS":"546.626","SITE":"AFETR","SEMIMAJOR_AXIS":"6925.376","BSTAR":"-0.00000416500000","RA_OF_ASC_NODE":"247.9536","OBJECT_NAME":"STARLINK-2673","MEAN_ANOMALY":"301.6961","MEAN_MOTION_DDOT":"0.0000000000000","GP_ID":"185058476","DECAY_DATE":null,"NORAD_CAT_ID":"48649","OBJECT_TYPE":"PAYLOAD","TLE_LINE1":"1 48649U 21044M   21262.69313349 -.00000343  00000-0 -41650-5 0  9996","COUNTRY_CODE":"US","EPHEMERIS_TYPE":"0","REV_AT_EPOCH":"1772","CLASSIFICATION_TYPE":"U"},{"TLE_LINE1":"1 48650U 21044N   21262.68944232 -.00000516  00000-0 -15804-4 0  9991","COUNTRY_CODE":"US","REV_AT_EPOCH":"1772","EPHEMERIS_TYPE":"0","CLASSIFICATION_TYPE":"U","BSTAR":"-0.00001580400000","SITE":"AFETR","SEMIMAJOR_AXIS":"6925.359","RA_OF_ASC_NODE":"247.9427","OBJECT_ID":"2021-044N","PERIAPSIS":"546.728","RCS_SIZE":"LARGE","TLE_LINE2":"2 48650  53.0537 247.9427 0000716  28.9680 331.1349 15.06396612 17720","OBJECT_NAME":"STARLINK-2672","DECAY_DATE":null,"MEAN_MOTION_DDOT":"0.0000000000000","GP_ID":"185058387","MEAN_ANOMALY":"331.1349","NORAD_CAT_ID":"48650","OBJECT_TYPE":"PAYLOAD","CENTER_NAME":"EARTH","ARG_OF_PERICENTER":"28.9680","ELEMENT_SET_NO":"999","MEAN_MOTION":"15.06396612","ECCENTRICITY":"0.00007160","MEAN_ELEMENT_THEORY":"SGP4","INCLINATION":"53.0537","TIME_SYSTEM":"UTC","EPOCH":"2021-09-19T16:32:47.816448","PERIOD":"95.592","MEAN_MOTION_DOT":"-0.00000516","REF_FRAME":"TEME","APOAPSIS":"547.720","LAUNCH_DATE":"2021-05-26","FILE":"3120378"},{"OBJECT_NAME":"STARLINK-2731","SITE":"AFETR","RA_OF_ASC_NODE":"246.7670","SEMIMAJOR_AXIS":"6925.360","BSTAR":"0.00006369900000","RCS_SIZE":"LARGE","TLE_LINE2":"2 48651  53.0536 246.7670 0000642  39.1290 320.9745 15.06396296 17764","PERIAPSIS":"546.780","OBJECT_ID":"2021-044P","OBJECT_TYPE":"PAYLOAD","NORAD_CAT_ID":"48651","GP_ID":"185058641","MEAN_MOTION_DDOT":"0.0000000000000","DECAY_DATE":null,"MEAN_ANOMALY":"320.9745","COUNTRY_CODE":"US","TLE_LINE1":"1 48651U 21044P   21262.95114581  .00000668  00000-0  63699-4 0  9999","CLASSIFICATION_TYPE":"U","REV_AT_EPOCH":"1776","EPHEMERIS_TYPE":"0","TIME_SYSTEM":"UTC","PERIOD":"95.592","EPOCH":"2021-09-19T22:49:38.997984","LAUNCH_DATE":"2021-05-26","FILE":"3120378","REF_FRAME":"TEME","MEAN_MOTION_DOT":"0.00000668","APOAPSIS":"547.670","ELEMENT_SET_NO":"999","CENTER_NAME":"EARTH","ARG_OF_PERICENTER":"39.1290","ECCENTRICITY":"0.00006420","INCLINATION":"53.0536","MEAN_ELEMENT_THEORY":"SGP4","MEAN_MOTION":"15.06396296"},{"CLASSIFICATION_TYPE":"U","EPHEMERIS_TYPE":"0","REV_AT_EPOCH":"1772","COUNTRY_CODE":"US","TLE_LINE1":"1 48652U 21044Q   21262.68205776  .00000512  00000-0  53255-4 0  9992","NORAD_CAT_ID":"48652","OBJECT_TYPE":"PAYLOAD","MEAN_ANOMALY":"302.8524","MEAN_MOTION_DDOT":"0.0000000000000","GP_ID":"185057986","DECAY_DATE":null,"OBJECT_NAME":"STARLINK-2727","TLE_LINE2":"2 48652  53.0552 247.9692 0000791  57.2542 302.8524 15.06403933 17723","RCS_SIZE":"LARGE","OBJECT_ID":"2021-044Q","PERIAPSIS":"546.654","SITE":"AFETR","BSTAR":"0.00005325500000","SEMIMAJOR_AXIS":"6925.337","RA_OF_ASC_NODE":"247.9692","INCLINATION":"53.0552","MEAN_ELEMENT_THEORY":"SGP4","ECCENTRICITY":"0.00007910","MEAN_MOTION":"15.06403933","ELEMENT_SET_NO":"999","CENTER_NAME":"EARTH","ARG_OF_PERICENTER":"57.2542","FILE":"3120378","LAUNCH_DATE":"2021-05-26","APOAPSIS":"547.749","REF_FRAME":"TEME","MEAN_MOTION_DOT":"0.00000512","PERIOD":"95.592","EPOCH":"2021-09-19T16:22:09.790464","TIME_SYSTEM":"UTC"},{"LAUNCH_DATE":"2021-05-26","FILE":"3120378","MEAN_MOTION_DOT":"0.00000656","REF_FRAME":"TEME","APOAPSIS":"547.768","TIME_SYSTEM":"UTC","EPOCH":"2021-09-19T16:16:52.185792","PERIOD":"95.592","ECCENTRICITY":"0.00008180","MEAN_ELEMENT_THEORY":"SGP4","INCLINATION":"53.0545","MEAN_MOTION":"15.06404016","ELEMENT_SET_NO":"999","CENTER_NAME":"EARTH","ARG_OF_PERICENTER":"38.2659","NORAD_CAT_ID":"48653","OBJECT_TYPE":"PAYLOAD","DECAY_DATE":null,"GP_ID":"185058164","MEAN_MOTION_DDOT":"0.0000000000000","MEAN_ANOMALY":"321.8388","OBJECT_NAME":"STARLINK-2720","SITE":"AFETR","SEMIMAJOR_AXIS":"6925.336","BSTAR":"0.00006288000000","RA_OF_ASC_NODE":"247.9903","PERIAPSIS":"546.635","OBJECT_ID":"2021-044R","RCS_SIZE":"LARGE","TLE_LINE2":"2 48653  53.0545 247.9903 0000818  38.2659 321.8388 15.06404016 17721","CLASSIFICATION_TYPE":"U","REV_AT_EPOCH":"1772","EPHEMERIS_TYPE":"0","COUNTRY_CODE":"US","TLE_LINE1":"1 48653U 21044R   21262.67838178  .00000656  00000-0  62880-4 0  9993"},{"TIME_SYSTEM":"UTC","EPOCH":"2021-09-19T16:11:34.267488","PERIOD":"95.593","MEAN_MOTION_DOT":"0.00000502","REF_FRAME":"TEME","APOAPSIS":"547.831","LAUNCH_DATE":"2021-05-26","FILE":"3120378","CENTER_NAME":"EARTH","ARG_OF_PERICENTER":"61.6919","ELEMENT_SET_NO":"999","MEAN_MOTION":"15.06389337","ECCENTRICITY":"0.00008440","MEAN_ELEMENT_THEORY":"SGP4","INCLINATION":"53.0557","SITE":"AFETR","SEMIMAJOR_AXIS":"6925.381","RA_OF_ASC_NODE":"248.0143","BSTAR":"0.00005257300000","OBJECT_ID":"2021-044S","PERIAPSIS":"546.662","TLE_LINE2":"2 48654  53.0557 248.0143 0000844  61.6919 298.4155 15.06389337 17720","RCS_SIZE":"LARGE","OBJECT_NAME":"STARLINK-2651","DECAY_DATE":null,"MEAN_MOTION_DDOT":"0.0000000000000","GP_ID":"185058074","MEAN_ANOMALY":"298.4155","NORAD_CAT_ID":"48654","OBJECT_TYPE":"PAYLOAD","TLE_LINE1":"1 48654U 21044S   21262.67470217  .00000502  00000-0  52573-4 0  9998","COUNTRY_CODE":"US","REV_AT_EPOCH":"1772","EPHEMERIS_TYPE":"0","CLASSIFICATION_TYPE":"U"},{"ELEMENT_SET_NO":"999","ARG_OF_PERICENTER":"70.0241","CENTER_NAME":"EARTH","ECCENTRICITY":"0.00005960","MEAN_ELEMENT_THEORY":"SGP4","INCLINATION":"53.0550","MEAN_MOTION":"15.06394583","TIME_SYSTEM":"UTC","EPOCH":"2021-09-19T16:06:16.291296","PERIOD":"95.592","LAUNCH_DATE":"2021-05-26","FILE":"3120378","MEAN_MOTION_DOT":"0.00001251","REF_FRAME":"TEME","APOAPSIS":"547.643","COUNTRY_CODE":"US","TLE_LINE1":"1 48655U 21044T   21262.67102189  .00001251  00000-0  10287-3 0  9996","CLASSIFICATION_TYPE":"U","REV_AT_EPOCH":"1772","EPHEMERIS_TYPE":"0","OBJECT_NAME":"STARLINK-2657","SITE":"AFETR","SEMIMAJOR_AXIS":"6925.365","RA_OF_ASC_NODE":"248.0262","BSTAR":"0.00010287000000","PERIAPSIS":"546.817","OBJECT_ID":"2021-044T","RCS_SIZE":"LARGE","TLE_LINE2":"2 48655  53.0550 248.0262 0000596  70.0241 290.0812 15.06394583 17729","NORAD_CAT_ID":"48655","OBJECT_TYPE":"PAYLOAD","DECAY_DATE":null,"MEAN_MOTION_DDOT":"0.0000000000000","GP_ID":"185058567","MEAN_ANOMALY":"290.0812"},{"SEMIMAJOR_AXIS":"6925.365","SITE":"AFETR","BSTAR":"0.00006108700000","RA_OF_ASC_NODE":"248.0402","PERIAPSIS":"546.433","OBJECT_ID":"2021-044U","TLE_LINE2":"2 48656  53.0545 248.0402 0001151  58.9710 301.1392 15.06394716 17729","RCS_SIZE":"LARGE","OBJECT_NAME":"STARLINK-2701","DECAY_DATE":null,"MEAN_MOTION_DDOT":"0.0000000000000","GP_ID":"185058300","MEAN_ANOMALY":"301.1392","NORAD_CAT_ID":"48656","OBJECT_TYPE":"PAYLOAD","TLE_LINE1":"1 48656U 21044U   21262.66733177  .00000629  00000-0  61087-4 0  9996","COUNTRY_CODE":"US","REV_AT_EPOCH":"1772","EPHEMERIS_TYPE":"0","CLASSIFICATION_TYPE":"U","TIME_SYSTEM":"UTC","EPOCH":"2021-09-19T16:00:57.464928","PERIOD":"95.592","MEAN_MOTION_DOT":"0.00000629","REF_FRAME":"TEME","APOAPSIS":"548.027","LAUNCH_DATE":"2021-05-26","FILE":"3120378","ARG_OF_PERICENTER":"58.9710","CENTER_NAME":"EARTH","ELEMENT_SET_NO":"999","MEAN_MOTION":"15.06394716","ECCENTRICITY":"0.00011510","MEAN_ELEMENT_THEORY":"SGP4","INCLINATION":"53.0545"},{"ARG_OF_PERICENTER":"46.8770","CENTER_NAME":"EARTH","ELEMENT_SET_NO":"999","MEAN_MOTION":"15.06391310","INCLINATION":"53.0549","MEAN_ELEMENT_THEORY":"SGP4","ECCENTRICITY":"0.00010670","PERIOD":"95.593","EPOCH":"2021-09-19T15:55:38.485632","TIME_SYSTEM":"UTC","APOAPSIS":"547.979","REF_FRAME":"TEME","MEAN_MOTION_DOT":"-0.00000072","FILE":"3120378","LAUNCH_DATE":"2021-05-26","TLE_LINE1":"1 48657U 21044V   21262.66363988 -.00000072  00000-0  14072-4 0  9991","COUNTRY_CODE":"US","EPHEMERIS_TYPE":"0","REV_AT_EPOCH":"1772","CLASSIFICATION_TYPE":"U","TLE_LINE2":"2 48657  53.0549 248.0570 0001067  46.8770 313.2308 15.06391310 17726","RCS_SIZE":"LARGE","PERIAPSIS":"546.501","OBJECT_ID":"2021-044V","SITE":"AFETR","SEMIMAJOR_AXIS":"6925.375","RA_OF_ASC_NODE":"248.0570","BSTAR":"0.00001407200000","OBJECT_NAME":"STARLINK-2734","MEAN_ANOMALY":"313.2308","GP_ID":"185058477","MEAN_MOTION_DDOT":"0.0000000000000","DECAY_DATE":null,"NORAD_CAT_ID":"48657","OBJECT_TYPE":"PAYLOAD"},{"GP_ID":"185058388","MEAN_MOTION_DDOT":"0.0000000000000","DECAY_DATE":null,"MEAN_ANOMALY":"275.5263","NORAD_CAT_ID":"48658","OBJECT_TYPE":"PAYLOAD","SITE":"AFETR","RA_OF_ASC_NODE":"248.0816","SEMIMAJOR_AXIS":"6925.370","BSTAR":"-0.00004264800000","RCS_SIZE":"LARGE","TLE_LINE2":"2 48658  53.0560 248.0816 0001323  84.5877 275.5263 15.06392852 17727","PERIAPSIS":"546.319","OBJECT_ID":"2021-044W","OBJECT_NAME":"STARLINK-2647","REV_AT_EPOCH":"1772","EPHEMERIS_TYPE":"0","CLASSIFICATION_TYPE":"U","TLE_LINE1":"1 48658U 21044W   21262.65995721 -.00000916  00000-0 -42648-4 0  9995","COUNTRY_CODE":"US","REF_FRAME":"TEME","MEAN_MOTION_DOT":"-0.00000916","APOAPSIS":"548.152","LAUNCH_DATE":"2021-05-26","FILE":"3120378","TIME_SYSTEM":"UTC","PERIOD":"95.593","EPOCH":"2021-09-19T15:50:20.302944","MEAN_MOTION":"15.06392852","ECCENTRICITY":"0.00013230","INCLINATION":"53.0560","MEAN_ELEMENT_THEORY":"SGP4","CENTER_NAME":"EARTH","ARG_OF_PERICENTER":"84.5877","ELEMENT_SET_NO":"999"}];
